NORAD_CAT_ID,OBJECT_NAME,OBJECT_TYPE,EPOCH,MEAN_MOTION,ECCENTRICITY,INCLINATION,RA_OF_ASC_NODE,ARG_OF_PERICENTER,MEAN_ANOMALY,BSTAR,MEAN_MOTION_DOT,MEAN_MOTION_DDOT,TLE_LINE0,TLE_LINE1,TLE_LINE2,SEMIMAJOR_AXIS,PERIOD,APOGEE,PERIGEE,DECAYED
51748.0,STARLINK-3501,PAYLOAD,2024-02-17 09:55:14,15.08840164,0.0001772,53.2186,81.7302,84.2528,275.8667,-1.1268e-05,-4.67e-06,0.0,0 STARLINK-3501,1 51748U 22016AL  24048.41336366 -.00000467  00000-0 -11268-4 0  9997,2 51748  53.2186  81.7302 0001772  84.2528 275.8667 15.08840164111358,6917.88,95.438,540.971,538.519,0.0
51748.0,STARLINK-3501,PAYLOAD,2024-02-18 11:21:23,15.08859809,0.0001679,53.2183,76.9695,89.3495,270.769,0.00010174,1.332e-05,0.0,0 STARLINK-3501,1 51748U 22016AL  24049.47318508  .00001332  00000-0  10174-3 0  9996,2 51748  53.2183  76.9695 0001679  89.3495 270.7690 15.08859809111515,6917.82,95.436,540.846,538.523,0.0
51748.0,STARLINK-3501,PAYLOAD,2024-02-18 19:18:19,15.08847297,0.0001927,53.2189,75.4849,83.4782,276.6429,-1.6764e-05,-5.55e-06,0.0,0 STARLINK-3501,1 51748U 22016AL  24049.80439384 -.00000555  00000-0 -16764-4 0  9999,2 51748  53.2189  75.4849 0001927  83.4782 276.6429 15.08847297111564,6917.858,95.437,541.056,538.39,0.0
51748.0,STARLINK-3501,PAYLOAD,2024-02-19 08:01:25,15.08841477,0.0001648,53.2181,73.1056,88.4764,271.6417,4.6326e-05,4.49e-06,0.0,0 STARLINK-3501,1 51748U 22016AL  24050.33431831  .00000449  00000-0  46326-4 0  9995,2 51748  53.2181  73.1056 0001648  88.4764 271.6417 15.08841477111641,6917.876,95.437,540.881,538.601,0.0
51748.0,STARLINK-3501,PAYLOAD,2024-02-20 11:02:58,15.08844623,0.0001603,53.2185,68.0501,93.9889,266.1286,-1.5151e-05,-5.29e-06,0.0,0 STARLINK-3501,1 51748U 22016AL  24051.46039739 -.00000529  00000-0 -15151-4 0  9994,2 51748  53.2185  68.0501 0001603  93.9889 266.1286 15.08844623111811,6917.866,95.437,540.84,538.622,0.0
51748.0,STARLINK-3501,PAYLOAD,2024-02-21 04:32:13,15.08834945,0.0001569,53.218,64.7786,96.414,263.7031,6.8377e-05,8e-06,0.0,0 STARLINK-3501,1 51748U 22016AL  24052.18904204  .00000800  00000-0  68377-4 0  9990,2 51748  53.2180  64.7786 0001569  96.4140 263.7031 15.08834945111922,6917.896,95.438,540.846,538.675,0.0
51748.0,STARLINK-3501,PAYLOAD,2024-02-21 07:42:59,15.08839577,0.0001529,53.2184,64.1868,95.9915,264.1251,0.00010162,1.33e-05,0.0,0 STARLINK-3501,1 51748U 22016AL  24052.32151901  .00001330  00000-0  10162-3 0  9991,2 51748  53.2184  64.1868 0001529  95.9915 264.1251 15.08839577110879,6917.882,95.438,540.804,538.689,0.0
51748.0,STARLINK-3501,PAYLOAD,2024-02-21 17:15:18,15.08836304,0.0001476,53.2179,62.4028,92.5915,267.5246,4.2876e-05,3.94e-06,0.0,0 STARLINK-3501,1 51748U 22016AL  24052.71896301  .00000394  00000-0  42876-4 0  9991,2 51748  53.2179  62.4028 0001476  92.5915 267.5246 15.08836304110939,6917.892,95.438,540.778,538.736,0.0
51748.0,STARLINK-3501,PAYLOAD,2024-02-22 07:33:46,15.08836922,0.0001541,53.2188,59.7275,98.7408,261.3758,4.9686e-05,5.03e-06,0.0,0 STARLINK-3501,1 51748U 22016AL  24053.31512536  .00000503  00000-0  49686-4 0  9991,2 51748  53.2188  59.7275 0001541  98.7408 261.3758 15.08836922112095,6917.89,95.438,540.821,538.689,0.0
51748.0,STARLINK-3501,PAYLOAD,2024-02-22 17:06:05,15.08839779,0.0001555,53.219,57.943,96.9761,263.1408,5.1987e-05,5.39e-06,0.0,0 STARLINK-3501,1 51748U 22016AL  24053.71256423  .00000539  00000-0  51987-4 0  9991,2 51748  53.2190  57.9430 0001555  96.9761 263.1408 15.08839779111081,6917.881,95.438,540.822,538.67,0.0
51748.0,STARLINK-3501,PAYLOAD,2024-02-23 07:24:33,15.08842692,0.0001584,53.2196,55.2672,98.4147,261.7025,7.0792e-05,8.39e-06,0.0,0 STARLINK-3501,1 51748U 22016AL  24054.30872307  .00000839  00000-0  70792-4 0  9990,2 51748  53.2196  55.2672 0001584  98.4147 261.7025 15.08842692111170,6917.872,95.437,540.833,538.641,0.0
51748.0,STARLINK-3501,PAYLOAD,2024-02-23 16:56:52,15.08842498,0.0001514,53.2191,53.4812,94.5259,265.5907,1.6097e-05,-3.2e-07,0.0,0 STARLINK-3501,1 51748U 22016AL  24054.70616457 -.00000032  00000-0  16097-4 0  9990,2 51748  53.2191  53.4812 0001514  94.5259 265.5907 15.08842498112306,6917.873,95.437,540.785,538.69,0.0
51748.0,STARLINK-3501,PAYLOAD,2024-02-24 04:04:35,15.08828122,0.0001531,53.2193,51.4,96.2885,263.8281,0.0001585,2.235e-05,0.0,0 STARLINK-3501,1 51748U 22016AL  24055.16985252  .00002235  00000-0  15850-3 0  9994,2 51748  53.2193  51.4000 0001531  96.2885 263.8281 15.08828122112379,6917.917,95.438,540.841,538.723,0.0
51748.0,STARLINK-3501,PAYLOAD,2024-02-24 08:50:44,15.08842682,0.0001549,53.2198,50.5055,85.0233,275.0936,8.3069e-05,1.034e-05,0.0,0 STARLINK-3501,1 51748U 22016AL  24055.36856496  .00001034  00000-0  83069-4 0  9997,2 51748  53.2198  50.5055 0001549  85.0233 275.0936 15.08842682112409,6917.872,95.437,540.809,538.666,0.0
51748.0,STARLINK-3501,PAYLOAD,2024-02-24 23:09:12,15.08835208,0.0001473,53.2197,47.8304,89.7279,270.3882,4.1874e-05,3.78e-06,0.0,0 STARLINK-3501,1 51748U 22016AL  24055.96473138  .00000378  00000-0  41874-4 0  9999,2 51748  53.2197  47.8304 0001473  89.7279 270.3882 15.08835208111426,6917.895,95.438,540.779,538.741,0.0
51748.0,STARLINK-3501,PAYLOAD,2024-02-25 08:41:30,15.08851069,0.000148,53.2182,46.0473,81.6935,278.4225,0.00011637,1.565e-05,0.0,0 STARLINK-3501,1 51748U 22016AL  24056.36215875  .00001565  00000-0  11637-3 0  9998,2 51748  53.2182  46.0473 0001480  81.6935 278.4225 15.08851069111485,6917.847,95.437,540.735,538.688,0.0
51748.0,STARLINK-3501,PAYLOAD,2024-02-25 16:38:26,15.0884344,0.000138,53.2182,44.5597,90.4404,269.6746,5.0678e-05,5.19e-06,0.0,0 STARLINK-3501,1 51748U 22016AL  24056.69336434  .00000519  00000-0  50678-4 0  9996,2 51748  53.2182  44.5597 0001380  90.4404 269.6746 15.08843440112602,6917.87,95.437,540.69,538.78,0.0
51748.0,STARLINK-3501,PAYLOAD,2024-02-26 05:21:31,15.08848905,0.0001517,53.2197,42.1799,93.5711,266.5455,7.6958e-05,9.37e-06,0.0,0 STARLINK-3501,1 51748U 22016AL  24057.22328051  .00000937  00000-0  76958-4 0  9995,2 51748  53.2197  42.1799 0001517  93.5711 266.5455 15.08848905111617,6917.853,95.437,540.768,538.669,0.0
51748.0,STARLINK-3501,PAYLOAD,2024-02-26 22:50:46,15.08839313,0.0001437,53.2181,38.9134,86.4691,273.6465,6.5341e-05,7.52e-06,0.0,0 STARLINK-3501,1 51748U 22016AL  24057.95192665  .00000752  00000-0  65341-4 0  9994,2 51748  53.2181  38.9134 0001437  86.4691 273.6465 15.08839313111720,6917.882,95.438,540.742,538.753,0.0
51748.0,STARLINK-3501,PAYLOAD,2024-02-27 03:36:56,15.08836305,0.0001522,53.2186,38.0204,86.5672,273.5495,8.8727e-06,-1.47e-06,0.0,0 STARLINK-3501,1 51748U 22016AL  24058.15065036 -.00000147  00000-0  88727-5 0  9991,2 51748  53.2186  38.0204 0001522  86.5672 273.5495 15.08836305112821,6917.892,95.438,540.81,538.704,0.0
51748.0,STARLINK-3501,PAYLOAD,2024-02-27 08:23:05,15.08844519,0.0001554,53.2192,37.1251,106.2547,253.8616,-3.4143e-05,-8.31e-06,0.0,0 STARLINK-3501,1 51748U 22016AL  24058.34936495 -.00000831  00000-0 -34143-4 0  9991,2 51748  53.2192  37.1251 0001554 106.2547 253.8616 15.08844519112851,6917.867,95.437,540.807,538.657,0.0
51748.0,STARLINK-3501,PAYLOAD,2024-02-28 03:27:43,15.08837626,0.0001546,53.2196,33.5559,106.2275,253.8887,4.3785e-06,-2.18e-06,0.0,0 STARLINK-3501,1 51748U 22016AL  24059.14424915 -.00000218  00000-0  43785-5 0  9990,2 51748  53.2196  33.5559 0001546 106.2275 253.8887 15.08837626112979,6917.888,95.438,540.822,538.683,0.0
51748.0,STARLINK-3501,PAYLOAD,2024-02-28 14:35:24,15.0884392,0.0001553,53.2199,31.4741,90.108,270.009,-1.0594e-05,-4.57e-06,0.0,0 STARLINK-3501,1 51748U 22016AL  24059.60792559 -.00000457  00000-0 -10594-4 0  9990,2 51748  53.2199  31.4741 0001553  90.1080 270.0090 15.08843920111975,6917.868,95.437,540.808,538.659,0.0
51748.0,STARLINK-3501,PAYLOAD,2024-02-28 20:56:57,15.08834136,0.0001626,53.2203,30.289,104.1477,255.9696,8.0447e-05,9.92e-06,0.0,0 STARLINK-3501,1 51748U 22016AL  24059.87289079  .00000992  00000-0  80447-4 0  9993,2 51748  53.2203  30.2890 0001626 104.1477 255.9696 15.08834136112019,6917.898,95.438,540.888,538.638,0.0
51748.0,STARLINK-3501,PAYLOAD,2024-02-29 04:53:53,15.08838502,0.000159,53.2202,28.8028,103.1739,256.9431,0.00011865,1.601e-05,0.0,0 STARLINK-3501,1 51748U 22016AL  24060.20408805  .00001601  00000-0  11865-3 0  9997,2 51748  53.2202  28.8028 0001590 103.1739 256.9431 15.08838502113137,6917.885,95.438,540.85,538.65,0.0
51748.0,STARLINK-3501,PAYLOAD,2024-02-29 14:26:12,15.08838737,0.0001273,53.2184,27.0134,95.9078,264.206,7.6509e-05,9.3e-06,0.0,0 STARLINK-3501,1 51748U 22016AL  24060.60152831  .00000930  00000-0  76509-4 0  9997,2 51748  53.2184  27.0134 0001273  95.9078 264.2060 15.08838737112125,6917.884,95.438,540.63,538.869,0.0
51748.0,STARLINK-3501,PAYLOAD,2024-02-29 22:23:08,15.08834855,0.0001881,53.2201,25.5298,98.8148,261.3057,3.7813e-06,-2.28e-06,0.0,0 STARLINK-3501,1 51748U 22016AL  24060.93273679 -.00000228  00000-0  37813-5 0  9994,2 51748  53.2201  25.5298 0001881  98.8148 261.3057 15.08834855112170,6917.896,95.438,541.062,538.46,0.0
51748.0,STARLINK-3501,PAYLOAD,2024-03-01 04:44:41,15.08833136,0.0001517,53.2196,24.3423,101.8263,258.2899,-5.4715e-06,-3.75e-06,0.0,0 STARLINK-3501,1 51748U 22016AL  24061.19769824 -.00000375  00000-0 -54715-5 0  9999,2 51748  53.2196  24.3423 0001517 101.8263 258.2899 15.08833136113282,6917.901,95.438,540.816,538.717,0.0
51748.0,STARLINK-3501,PAYLOAD,2024-03-01 14:16:59,15.08837394,0.000157,53.2203,22.5581,98.9023,261.2147,4.2032e-05,3.81e-06,0.0,0 STARLINK-3501,1 51748U 22016AL  24061.59513580  .00000381  00000-0  42032-4 0  9992,2 51748  53.2203  22.5581 0001570  98.9023 261.2147 15.08837394112273,6917.888,95.438,540.839,538.667,0.0
51748.0,STARLINK-3501,PAYLOAD,2024-03-02 03:00:04,15.08848408,0.0001477,53.2201,20.1783,97.3799,262.7361,7.8172e-05,9.57e-06,0.0,0 STARLINK-3501,1 51748U 22016AL  24062.12504769  .00000957  00000-0  78172-4 0  9994,2 51748  53.2201  20.1783 0001477  97.3799 262.7361 15.08848408113428,6917.855,95.437,540.741,538.698,0.0
